GSLV R/B                
1 54149U 22138AN  26060.83168087  .00004597  00000+0  39841-3 0  9996
2 54149  87.3881 168.9916 0021858 173.9903 186.1595 14.96704323182753
XRISM                   
1 57800U 23137A   26060.84794735  .00007410  00000+0  42230-3 0  9992
2 57800  31.0034 334.3805 0008248 319.9445  40.0585 15.11388993136602
ACS3                    
1 59588U 24077B   26060.79240921  .00025147  00000+0  20397-1 0  9993
2 59588  97.2116   3.6797 0054233  98.1485 262.5835 13.89214165 93101
SZ-21 MODULE            
1 66515U 25246C   26060.60353166  .00039570  00000+0  35055-3 0  9990
2 66515  41.4736 253.1136 0001468 286.2005  73.8675 15.67828728 16808
